COSMOS 2503             
1 40420U 15009A   26068.69626972  .00002817  00000+0  19590-3 0  9998
2 40420  97.8437 123.7175 0015321 225.7450 134.2520 15.06275973603958
STARLINK-3652           
1 51991U 22025AM  26068.30620993  .00000420  00000+0  44495-4 0  9995
2 51991  53.2189  40.8422 0001346  87.0792 273.0354 15.08838626221008
